NORAD_CAT_ID,OBJECT_NAME,OBJECT_TYPE,EPOCH,MEAN_MOTION,ECCENTRICITY,INCLINATION,RA_OF_ASC_NODE,ARG_OF_PERICENTER,MEAN_ANOMALY,BSTAR,MEAN_MOTION_DOT,MEAN_MOTION_DDOT,TLE_LINE0,TLE_LINE1,TLE_LINE2,SEMIMAJOR_AXIS,PERIOD,APOGEE,PERIGEE,DECAYED
55274.0,STARLINK-5236,PAYLOAD,2023-04-12 12:31:15,15.69910597,0.0003882,69.9977,195.6026,269.8294,90.2457,5.1712e-06,4.08e-06,0.0,0 STARLINK-5236,1 55274U 23010F   23102.52170736  .00000408  00000-0  51712-5 0  9991,2 55274  69.9977 195.6026 0003882 269.8294  90.2457 15.69910597 13858,6737.29,91.725,361.77,356.539,0.0
55274.0,STARLINK-5236,PAYLOAD,2023-04-13 08:24:01,15.69924637,0.0003058,69.9985,193.2732,261.8728,98.2121,2.4832e-05,2.774e-05,0.0,0 STARLINK-5236,1 55274U 23010F   23103.35001367  .00002774  00000-0  24832-4 0  9996,2 55274  69.9985 193.2732 0003058 261.8728  98.2121 15.69924637 13984,6737.25,91.724,361.175,357.054,0.0
55274.0,STARLINK-5236,PAYLOAD,2023-04-13 17:34:32,15.69922608,0.0003326,69.9982,192.1985,264.8012,95.2804,1.138e-05,1.156e-05,0.0,0 STARLINK-5236,1 55274U 23010F   23103.73231809  .00001156  00000-0  11380-4 0  9991,2 55274  69.9982 192.1985 0003326 264.8012  95.2804 15.69922608 13729,6737.255,91.724,361.361,356.88,0.0
55274.0,STARLINK-5236,PAYLOAD,2023-04-14 08:52:03,15.69912558,0.0003575,69.9986,190.4075,261.4123,98.6668,4.6528e-05,5.383e-05,0.0,0 STARLINK-5236,1 55274U 23010F   23104.36948289  .00005383  00000-0  46528-4 0  9996,2 55274  69.9986 190.4075 0003575 261.4123  98.6668 15.69912558 14141,6737.284,91.725,361.558,356.741,0.0
55274.0,STARLINK-5236,PAYLOAD,2023-04-14 22:37:49,15.69919593,0.0003998,69.9975,188.7952,264.732,95.342,-1.7011e-06,-4.18e-06,0.0,0 STARLINK-5236,1 55274U 23010F   23104.94293643 -.00000418  00000-0 -17011-5 0  9999,2 55274  69.9975 188.7952 0003998 264.7320  95.3420 15.69919593 13917,6737.264,91.724,361.823,356.435,0.0
55274.0,STARLINK-5236,PAYLOAD,2023-04-15 13:55:21,15.69922552,0.0003911,69.9981,187.0028,266.5534,93.5214,-5.5239e-06,-8.77e-06,0.0,0 STARLINK-5236,1 55274U 23010F   23105.58010430 -.00000877  00000-0 -55239-5 0  9994,2 55274  69.9981 187.0028 0003911 266.5534  93.5214 15.69922552 14339,6737.256,91.724,361.756,356.486,0.0
55274.0,STARLINK-5236,PAYLOAD,2023-04-15 16:58:50,15.69938239,0.0004144,69.9979,186.6463,261.723,98.3496,4.469e-06,3.24e-06,0.0,0 STARLINK-5236,1 55274U 23010F   23105.70752494  .00000324  00000-0  44690-5 0  9995,2 55274  69.9979 186.6463 0004144 261.7230  98.3496 15.69938239 14034,6737.211,91.723,361.868,356.284,0.0
55274.0,STARLINK-5236,PAYLOAD,2023-04-16 12:51:37,15.6992405,0.0003457,69.998,184.3161,269.1888,90.8912,1.486e-05,1.574e-05,0.0,0 STARLINK-5236,1 55274U 23010F   23106.53585010  .00001574  00000-0  14860-4 0  9998,2 55274  69.9980 184.3161 0003457 269.1888  90.8912 15.69924050 14488,6737.251,91.724,361.445,356.787,0.0
55274.0,STARLINK-5236,PAYLOAD,2023-04-16 17:26:53,15.69914072,0.0003526,69.9975,183.7796,282.4891,77.591,-1.0339e-05,-1.455e-05,0.0,0 STARLINK-5236,1 55274U 23010F   23106.72701271 -.00001455  00000-0 -10339-4 0  9995,2 55274  69.9975 183.7796 0003526 282.4891  77.5910 15.69914072 14199,6737.28,91.725,361.52,356.769,0.0
55274.0,STARLINK-5236,PAYLOAD,2023-04-16 22:02:08,15.69921051,0.0003937,69.9981,183.2406,270.4652,89.6092,1.5712e-05,1.676e-05,0.0,0 STARLINK-5236,1 55274U 23010F   23106.91815134  .00001676  00000-0  15712-4 0  9993,2 55274  69.9981 183.2406 0003937 270.4652  89.6092 15.69921051 14221,6737.26,91.724,361.777,356.472,0.0
55274.0,STARLINK-5236,PAYLOAD,2023-04-17 13:19:39,15.69925685,0.0003583,69.9974,181.4499,266.8157,93.2629,5.0782e-06,3.98e-06,0.0,0 STARLINK-5236,1 55274U 23010F   23107.55531961  .00000398  00000-0  50782-5 0  9994,2 55274  69.9974 181.4499 0003583 266.8157  93.2629 15.69925685 14641,6737.247,91.724,361.526,356.698,0.0
55274.0,STARLINK-5236,PAYLOAD,2023-04-17 16:23:10,15.69918471,0.0003137,69.998,181.0919,256.8922,103.1924,3.4746e-06,2.05e-06,0.0,0 STARLINK-5236,1 55274U 23010F   23107.68275848  .00000205  00000-0  34746-5 0  9996,2 55274  69.9980 181.0919 0003137 256.8922 103.1924 15.69918471 14346,6737.267,91.725,361.246,357.019,0.0
55274.0,STARLINK-5236,PAYLOAD,2023-04-17 22:30:09,15.69934853,0.0003944,69.9973,180.3754,267.0626,93.0119,4.9699e-06,3.85e-06,0.0,0 STARLINK-5236,1 55274U 23010F   23107.93761418  .00000385  00000-0  49699-5 0  9999,2 55274  69.9973 180.3754 0003944 267.0626  93.0119 15.69934853 14387,6737.22,91.724,361.743,356.428,0.0
55274.0,STARLINK-5236,PAYLOAD,2023-04-18 07:40:41,15.69921682,0.0003727,69.9971,179.3015,273.6673,86.4096,5.9422e-06,5.01e-06,0.0,0 STARLINK-5236,1 55274U 23010F   23108.31992255  .00000501  00000-0  59422-5 0  9992,2 55274  69.9971 179.3015 0003727 273.6673  86.4096 15.69921682 14440,6737.258,91.724,361.634,356.612,0.0
55274.0,STARLINK-5236,PAYLOAD,2023-04-18 16:51:11,15.69928883,0.00037,69.999,178.2278,263.6042,96.4733,2.2724e-05,2.521e-05,0.0,0 STARLINK-5236,1 55274U 23010F   23108.70221527  .00002521  00000-0  22724-4 0  9990,2 55274  69.9990 178.2278 0003700 263.6042  96.4733 15.69928883 14821,6737.237,91.724,361.595,356.61,0.0
55274.0,STARLINK-5236,PAYLOAD,2023-04-19 08:08:42,15.69930626,0.000315,69.9984,176.4337,276.9013,83.1824,8.2862e-06,7.84e-06,0.0,0 STARLINK-5236,1 55274U 23010F   23109.33938601  .00000784  00000-0  82862-5 0  9997,2 55274  69.9984 176.4337 0003150 276.9013  83.1824 15.69930626 14927,6737.232,91.724,361.22,356.975,0.0
55274.0,STARLINK-5236,PAYLOAD,2023-04-19 14:15:43,15.6991942,0.0003558,69.9988,175.719,277.4132,82.6659,1.7845e-05,1.933e-05,0.0,0 STARLINK-5236,1 55274U 23010F   23109.59425802  .00001933  00000-0  17845-4 0  9994,2 55274  69.9988 175.7190 0003558 277.4132  82.6659 15.69919420 14648,6737.265,91.724,361.527,356.732,0.0
55274.0,STARLINK-5236,PAYLOAD,2023-04-20 07:05:01,15.69903527,0.0004189,69.9967,173.7478,283.8223,76.2506,-9.6131e-06,-1.368e-05,0.0,0 STARLINK-5236,1 55274U 23010F   23110.29515404 -.00001368  00000-0 -96131-5 0  9991,2 55274  69.9967 173.7478 0004189 283.8223  76.2506 15.69903527 15074,6737.31,91.725,361.997,356.353,0.0
55274.0,STARLINK-5236,PAYLOAD,2023-04-20 11:40:17,15.69892389,0.0003135,69.9976,173.2091,268.0025,92.0811,-1.0995e-05,-1.533e-05,0.0,0 STARLINK-5236,1 55274U 23010F   23110.48631321 -.00001533  00000-0 -10995-4 0  9996,2 55274  69.9976 173.2091 0003135 268.0025  92.0811 15.69892389 14780,6737.342,91.726,361.319,357.095,0.0
55274.0,STARLINK-5236,PAYLOAD,2023-04-20 16:15:31,15.69913591,0.0003564,69.9972,172.672,277.4327,82.6464,4.6795e-06,3.5e-06,0.0,0 STARLINK-5236,1 55274U 23010F   23110.67745086  .00000350  00000-0  46795-5 0  9993,2 55274  69.9972 172.6720 0003564 277.4327  82.6464 15.69913591 15131,6737.281,91.725,361.547,356.745,0.0
55274.0,STARLINK-5236,PAYLOAD,2023-04-21 06:01:16,15.69933521,0.0003329,69.9974,171.059,266.8554,93.2261,-4.261e-06,-7.25e-06,0.0,0 STARLINK-5236,1 55274U 23010F   23111.25088933 -.00000725  00000-0 -42610-5 0  9999,2 55274  69.9974 171.0590 0003329 266.8554  93.2261 15.69933521 15222,6737.224,91.724,361.332,356.846,0.0
55274.0,STARLINK-5236,PAYLOAD,2023-04-21 13:40:01,15.69940283,0.0003187,69.9971,170.1628,268.6105,91.4726,3.5947e-06,2.2e-06,0.0,0 STARLINK-5236,1 55274U 23010F   23111.56946542  .00000220  00000-0  35947-5 0  9995,2 55274  69.9971 170.1628 0003187 268.6105  91.4726 15.69940283 15279,6737.205,91.723,361.217,356.923,0.0
55274.0,STARLINK-5236,PAYLOAD,2023-04-22 14:08:04,15.69914891,0.0003722,69.9964,167.2969,273.2988,86.7782,3.0068e-05,3.403e-05,0.0,0 STARLINK-5236,1 55274U 23010F   23112.58894374  .00003403  00000-0  30068-4 0  9997,2 55274  69.9964 167.2969 0003722 273.2988  86.7782 15.69914891 15435,6737.277,91.725,361.65,356.635,0.0
55274.0,STARLINK-5236,PAYLOAD,2023-04-23 13:04:21,15.69924426,0.0004425,69.9972,164.611,267.4543,92.6146,1.1549e-05,1.176e-05,0.0,0 STARLINK-5236,1 55274U 23010F   23113.54469062  .00001176  00000-0  11549-4 0  9994,2 55274  69.9972 164.6110 0004425 267.4543  92.6146 15.69924426 15587,6737.25,91.724,362.096,356.134,0.0
55274.0,STARLINK-5236,PAYLOAD,2023-04-24 02:50:07,15.69929948,0.0003531,69.9979,162.9985,268.0928,91.9863,1.2482e-05,1.289e-05,0.0,0 STARLINK-5236,1 55274U 23010F   23114.11813778  .00001289  00000-0  12482-4 0  9997,2 55274  69.9979 162.9985 0003531 268.0928  91.9863 15.69929948 15678,6737.234,91.724,361.478,356.72,0.0
55274.0,STARLINK-5236,PAYLOAD,2023-04-25 12:28:43,15.69889097,0.0003332,69.9981,159.0574,255.2261,104.8566,-2.6397e-05,-3.381e-05,0.0,0 STARLINK-5236,1 55274U 23010F   23115.51994859 -.00003381  00000-0 -26397-4 0  9999,2 55274  69.9981 159.0574 0003332 255.2261 104.8566 15.69889097 15572,6737.351,91.726,361.461,356.971,0.0
55274.0,STARLINK-5236,PAYLOAD,2023-04-26 12:56:41,15.69942152,0.0003414,69.996,156.1884,260.5757,99.5053,5.2449e-05,6.103e-05,0.0,0 STARLINK-5236,1 55274U 23010F   23116.53936991  .00006103  00000-0  52449-4 0  9995,2 55274  69.9960 156.1884 0003414 260.5757  99.5053 15.69942152 16058,6737.2,91.723,361.365,356.764,0.0
55274.0,STARLINK-5236,PAYLOAD,2023-04-27 11:52:59,15.69915921,0.0003644,69.9972,153.5036,257.3311,102.7478,3.6502e-05,4.177e-05,0.0,0 STARLINK-5236,1 55274U 23010F   23117.49513872  .00004177  00000-0  36502-4 0  9991,2 55274  69.9972 153.5036 0003644 257.3311 102.7478 15.69915921 15888,6737.275,91.725,361.595,356.684,0.0
55274.0,STARLINK-5236,PAYLOAD,2023-04-28 12:21:01,15.69939079,0.0003241,69.9968,150.6362,260.4293,99.6537,-2.3979e-05,-3.097e-05,0.0,0 STARLINK-5236,1 55274U 23010F   23118.51460217 -.00003097  00000-0 -23979-4 0  9995,2 55274  69.9968 150.6362 0003241 260.4293  99.6537 15.69939079 16049,6737.208,91.723,361.257,356.89,0.0
55274.0,STARLINK-5236,PAYLOAD,2023-04-29 11:17:18,15.69925547,0.0003259,69.9962,147.9498,260.9609,99.1218,9.2725e-06,9.02e-06,0.0,0 STARLINK-5236,1 55274U 23010F   23119.47034837  .00000902  00000-0  92725-5 0  9992,2 55274  69.9962 147.9498 0003259 260.9609  99.1218 15.69925547 16515,6737.247,91.724,361.308,356.916,0.0
